{
  "type": "FeatureCollection",
  "features": [
    {
      "type": "Feature",
      "properties": {
        "norad_id": 40376,
        "name": "SMAP",
        "group": "resource",
        "lat": -80.80227095464191,
        "lon": 65.83404743049243,
        "alt_km": 690.5599441866516,
        "timestamp": "2025-12-25T07:41:09.380154+00:00",
        "meta_object_name": "SMAP",
        "meta_object_id": "2015-003A",
        "meta_epoch": "2025-12-24T22:13:51.193344",
        "meta_mean_motion": 14.63359655,
        "meta_eccentricity": 0.00012324,
        "meta_inclination": 98.129,
        "meta_ra_of_asc_node": 3.4745,
        "meta_arg_of_pericenter": 92.182,
        "meta_mean_anomaly": 267.9523,
        "meta_ephemeris_type": 0,
        "meta_classification_type": "U",
        "meta_norad_cat_id": 40376,
        "meta_element_set_no": 999,
        "meta_rev_at_epoch": 58213,
        "meta_bstar": 0.00011540343,
        "meta_mean_motion_dot": 5.49e-06,
        "meta_mean_motion_ddot": 0,
        "tle_line1": "1 40376U 15003A   25358.92628696  .00000549  00000+0  11540-3 0  9991",
        "tle_line2": "2 40376  98.1290   3.4745 0001232  92.1820 267.9523 14.63359655582134"
      },
      "geometry": {
        "type": "Point",
        "coordinates": [
          65.83404743049243,
          -80.80227095464191
        ]
      }
    },
    {
      "type": "Feature",
      "properties": {
        "norad_id": 40536,
        "name": "KOMPSAT-3A",
        "group": "resource",
        "lat": 20.03078367531842,
        "lon": -28.454147908079158,
        "alt_km": 432.5587245295301,
        "timestamp": "2025-12-25T07:41:09.380164+00:00",
        "meta_object_name": "KOMPSAT-3A",
        "meta_object_id": "2015-014A",
        "meta_epoch": "2025-12-24T22:16:06.806784",
        "meta_mean_motion": 15.44386187,
        "meta_eccentricity": 0.00056157,
        "meta_inclination": 97.6806,
        "meta_ra_of_asc_node": 333.9516,
        "meta_arg_of_pericenter": 100.4335,
        "meta_mean_anomaly": 259.7546,
        "meta_ephemeris_type": 0,
        "meta_classification_type": "U",
        "meta_norad_cat_id": 40536,
        "meta_element_set_no": 999,
        "meta_rev_at_epoch": 59483,
        "meta_bstar": 0.00042915786,
        "meta_mean_motion_dot": 0.00019758,
        "meta_mean_motion_ddot": 0,
        "tle_line1": "1 40536U 15014A   25358.92785656  .00019758  00000+0  42916-3 0  9994",
        "tle_line2": "2 40536  97.6806 333.9516 0005615 100.4335 259.7546 15.44386187594833"
      },
      "geometry": {
        "type": "Point",
        "coordinates": [
          -28.454147908079158,
          20.03078367531842
        ]
      }
    },
    {
      "type": "Feature",
      "properties": {
        "norad_id": 40697,
        "name": "SENTINEL-2A",
        "group": "resource",
        "lat": 67.04332881459413,
        "lon": -87.46111354998145,
        "alt_km": 781.7653560253602,
        "timestamp": "2025-12-25T07:41:09.380174+00:00",
        "meta_object_name": "SENTINEL-2A",
        "meta_object_id": "2015-028A",
        "meta_epoch": "2025-12-24T22:46:33.117024",
        "meta_mean_motion": 14.30810075,
        "meta_eccentricity": 0.00010589,
        "meta_inclination": 98.5728,
        "meta_ra_of_asc_node": 71.3106,
        "meta_arg_of_pericenter": 90.2804,
        "meta_mean_anomaly": 269.85,
        "meta_ephemeris_type": 0,
        "meta_classification_type": "U",
        "meta_norad_cat_id": 40697,
        "meta_element_set_no": 999,
        "meta_rev_at_epoch": 54881,
        "meta_bstar": 6.0320191e-05,
        "meta_mean_motion_dot": 1.14e-06,
        "meta_mean_motion_ddot": 0,
        "tle_line1": "1 40697U 15028A   25358.94899441  .00000114  00000+0  60320-4 0  9993",
        "tle_line2": "2 40697  98.5728  71.3106 0001058  90.2804 269.8500 14.30810075548817"
      },
      "geometry": {
        "type": "Point",
        "coordinates": [
          -87.46111354998145,
          67.04332881459413
        ]
      }
    },
    {
      "type": "Feature",
      "properties": {
        "norad_id": 40701,
        "name": "GAOFEN-8",
        "group": "resource",
        "lat": -1.3606472860733156,
        "lon": 178.26102525524692,
        "alt_km": 453.0838574785057,
        "timestamp": "2025-12-25T07:41:09.380184+00:00",
        "meta_object_name": "GAOFEN-8",
        "meta_object_id": "2015-030A",
        "meta_epoch": "2025-12-24T23:53:22.288704",
        "meta_mean_motion": 15.3897896,
        "meta_eccentricity": 0.00114011,
        "meta_inclination": 97.6897,
        "meta_ra_of_asc_node": 177.7364,
        "meta_arg_of_pericenter": 95.323,
        "meta_mean_anomaly": 264.9316,
        "meta_ephemeris_type": 0,
        "meta_classification_type": "U",
        "meta_norad_cat_id": 40701,
        "meta_element_set_no": 999,
        "meta_rev_at_epoch": 58459,
        "meta_bstar": 0.00071122179,
        "meta_mean_motion_dot": 0.00027481,
        "meta_mean_motion_ddot": 0,
        "tle_line1": "1 40701U 15030A   25358.99539686  .00027481  00000+0  71122-3 0  9996",
        "tle_line2": "2 40701  97.6897 177.7364 0011401  95.3230 264.9316 15.38978960584592"
      },
      "geometry": {
        "type": "Point",
        "coordinates": [
          178.26102525524692,
          -1.3606472860733156
        ]
      }
    },
    {
      "type": "Feature",
      "properties": {
        "norad_id": 40718,
        "name": "CARBONITE 1 (CBNT-1)",
        "group": "resource",
        "lat": -78.43149721414746,
        "lon": -139.21153075542387,
        "alt_km": 635.7956230127666,
        "timestamp": "2025-12-25T07:41:09.380194+00:00",
        "meta_object_name": "CARBONITE 1 (CBNT-1)",
        "meta_object_id": "2015-032D",
        "meta_epoch": "2025-12-24T23:57:19.380672",
        "meta_mean_motion": 14.82804268,
        "meta_eccentricity": 0.00153219,
        "meta_inclination": 97.6402,
        "meta_ra_of_asc_node": 179.5031,
        "meta_arg_of_pericenter": 141.7236,
        "meta_mean_anomaly": 218.5069,
        "meta_ephemeris_type": 0,
        "meta_classification_type": "U",
        "meta_norad_cat_id": 40718,
        "meta_element_set_no": 999,
        "meta_rev_at_epoch": 56352,
        "meta_bstar": 0.00069397718,
        "meta_mean_motion_dot": 5.576e-05,
        "meta_mean_motion_ddot": 0,
        "tle_line1": "1 40718U 15032D   25358.99814098  .00005576  00000+0  69398-3 0  9992",
        "tle_line2": "2 40718  97.6402 179.5031 0015321 141.7236 218.5069 14.82804268563527"
      },
      "geometry": {
        "type": "Point",
        "coordinates": [
          -139.21153075542387,
          -78.43149721414746
        ]
      }
    },
    {
      "type": "Feature",
      "properties": {
        "norad_id": 40878,
        "name": "YAOGAN-27",
        "group": "resource",
        "lat": -1.2475784718325544,
        "lon": -11.406521481486264,
        "alt_km": 1204.0223939061589,
        "timestamp": "2025-12-25T07:41:09.380205+00:00",
        "meta_object_name": "YAOGAN-27",
        "meta_object_id": "2015-040A",
        "meta_epoch": "2025-12-24T22:34:11.328096",
        "meta_mean_motion": 13.16062434,
        "meta_eccentricity": 0.00075645,
        "meta_inclination": 100.1019,
        "meta_ra_of_asc_node": 348.0084,
        "meta_arg_of_pericenter": 256.1654,
        "meta_mean_anomaly": 103.8618,
        "meta_ephemeris_type": 0,
        "meta_classification_type": "U",
        "meta_norad_cat_id": 40878,
        "meta_element_set_no": 999,
        "meta_rev_at_epoch": 49474,
        "meta_bstar": 0.00080024117,
        "meta_mean_motion_dot": 2.62e-06,
        "meta_mean_motion_ddot": 0,
        "tle_line1": "1 40878U 15040A   25358.94040889  .00000262  00000+0  80024-3 0  9998",
        "tle_line2": "2 40878 100.1019 348.0084 0007564 256.1654 103.8618 13.16062434494744"
      },
      "geometry": {
        "type": "Point",
        "coordinates": [
          -11.406521481486264,
          -1.2475784718325544
        ]
      }
    },
    {
      "type": "Feature",
      "properties": {
        "norad_id": 40894,
        "name": "GAOFEN-9 01",
        "group": "resource",
        "lat": -4.287756782072377,
        "lon": -142.84599321183708,
        "alt_km": 644.0169649381887,
        "timestamp": "2025-12-25T07:41:09.380215+00:00",
        "meta_object_name": "GAOFEN-9 01",
        "meta_object_id": "2015-047A",
        "meta_epoch": "2025-12-24T22:45:27.120384",
        "meta_mean_motion": 14.82451289,
        "meta_eccentricity": 0.00273949,
        "meta_inclination": 97.6527,
        "meta_ra_of_asc_node": 37.3757,
        "meta_arg_of_pericenter": 354.7993,
        "meta_mean_anomaly": 5.2932,
        "meta_ephemeris_type": 0,
        "meta_classification_type": "U",
        "meta_norad_cat_id": 40894,
        "meta_element_set_no": 999,
        "meta_rev_at_epoch": 55437,
        "meta_bstar": 0.00014720477,
        "meta_mean_motion_dot": 1.137e-05,
        "meta_mean_motion_ddot": 0,
        "tle_line1": "1 40894U 15047A   25358.94823056  .00001137  00000+0  14720-3 0  9990",
        "tle_line2": "2 40894  97.6527  37.3757 0027394 354.7993   5.2932 14.82451289554379"
      },
      "geometry": {
        "type": "Point",
        "coordinates": [
          -142.84599321183708,
          -4.287756782072377
        ]
      }
    }
  ]
}